{"type": "FeatureCollection", "features": [ {"type": "Feature", "properties": {"norad_id": 66547, "name": "SHIJIAN-30C", "group": "last-30-days", "lat": -51.713144202899514, "lon": -75.36821715746534, "alt_km": 519.2413215463976, "timestamp": "2025-12-02T23:34:14.291568+00:00", "meta": {"OBJECT_NAME": "SHIJIAN-30C", "OBJECT_ID": "2025-266C", "EPOCH": "2025-12-02T14:28:49.291392", "MEAN_MOTION": 15.15409301, "ECCENTRICITY": 0.0011327, "INCLINATION": 51.7989, "RA_OF_ASC_NODE": 20.3617, "ARG_OF_PERICENTER": 315.3945, "MEAN_ANOMALY": 44.6119, "EPHEMERIS_TYPE": 0, "CLASSIFICATION_TYPE": "U", "NORAD_CAT_ID": 66547, "ELEMENT_SET_NO": 999, "REV_AT_EPOCH": 204, "BSTAR": 0.00080329, "MEAN_MOTION_DOT": 0.00015109, "MEAN_MOTION_DDOT": 0}, "tle": {"line1": "1 66547U 25266C   25336.60334828  .00015109  00000+0  80329-3 0  9992", "line2": "2 66547  51.7989  20.3617 0011327 315.3945  44.6119 15.15409301  2042"}}, "geometry": {"type": "Point", "coordinates": [-75.36821715746534, -51.713144202899514]}}, {"type": "Feature", "properties": {"norad_id": 66548, "name": "CZ-2C R/B", "group": "last-30-days", "lat": -51.437018399616136, "lon": -84.07758475483995, "alt_km": 512.0784641740556, "timestamp": "2025-12-02T23:34:14.291578+00:00", "meta": {"OBJECT_NAME": "CZ-2C R/B", "OBJECT_ID": "2025-266D", "EPOCH": "2025-12-02T11:27:32.023872", "MEAN_MOTION": 15.29821049, "ECCENTRICITY": 0.0084839, "INCLINATION": 52.055, "RA_OF_ASC_NODE": 20.1598, "ARG_OF_PERICENTER": 138.1426, "MEAN_ANOMALY": 222.6089, "EPHEMERIS_TYPE": 0, "CLASSIFICATION_TYPE": "U", "NORAD_CAT_ID": 66548, "ELEMENT_SET_NO": 999, "REV_AT_EPOCH": 204, "BSTAR": 0.00047166, "MEAN_MOTION_DOT": 0.0001505, "MEAN_MOTION_DDOT": 0}, "tle": {"line1": "1 66548U 25266D   25336.47745398  .00015050  00000+0  47166-3 0  9993", "line2": "2 66548  52.0550  20.1598 0084839 138.1426 222.6089 15.29821049  2046"}}, "geometry": {"type": "Point", "coordinates": [-84.07758475483995, -51.437018399616136]}}, {"type": "Feature", "properties": {"norad_id": 66549, "name": "SHIJIAN-28", "group": "last-30-days", "lat": 2.0745375657011533, "lon": -77.4368808286291, "alt_km": 34930.8692330942, "timestamp": "2025-12-02T23:34:14.291590+00:00", "meta": {"OBJECT_NAME": "SHIJIAN-28", "OBJECT_ID": "2025-277A", "EPOCH": "2025-11-30T18:06:43.124256", "MEAN_MOTION": 2.28019775, "ECCENTRICITY": 0.7300519, "INCLINATION": 14.4344, "RA_OF_ASC_NODE": 275.4056, "ARG_OF_PERICENTER": 179.5026, "MEAN_ANOMALY": 182.358, "EPHEMERIS_TYPE": 0, "CLASSIFICATION_TYPE": "U", "NORAD_CAT_ID": 66549, "ELEMENT_SET_NO": 999, "REV_AT_EPOCH": 4, "BSTAR": 0.00062085, "MEAN_MOTION_DOT": 6.315e-05, "MEAN_MOTION_DDOT": 0}, "tle": {"line1": "1 66549U 25277A   25334.75466579  .00006315  00000+0  62085-3 0  9997", "line2": "2 66549  14.4344 275.4056 7300519 179.5026 182.3580  2.28019775    48"}}, "geometry": {"type": "Point", "coordinates": [-77.4368808286291, 2.0745375657011533]}}, {"type": "Feature", "properties": {"norad_id": 66550, "name": "CZ-7A R/B", "group": "last-30-days", "lat": 10.7513622352527, "lon": -38.03660921315528, "alt_km": 15240.355221762064, "timestamp": "2025-12-02T23:34:14.291601+00:00", "meta": {"OBJECT_NAME": "CZ-7A R/B", "OBJECT_ID": "2025-277B", "EPOCH": "2025-12-01T03:57:29.558880", "MEAN_MOTION": 2.40161271, "ECCENTRICITY": 0.72362879, "INCLINATION": 14.4278, "RA_OF_ASC_NODE": 275.378, "ARG_OF_PERICENTER": 178.5774, "MEAN_ANOMALY": 186.2906, "EPHEMERIS_TYPE": 0, "CLASSIFICATION_TYPE": "U", "NORAD_CAT_ID": 66550, "ELEMENT_SET_NO": 999, "REV_AT_EPOCH": 5, "BSTAR": 4.4603974e-05, "MEAN_MOTION_DOT": 0.00016399, "MEAN_MOTION_DDOT": -7.1945e-08}, "tle": {"line1": "1 66550U 25277B   25335.16492545  .00016399 -71945-7  44604-4 0  9993", "line2": "2 66550  14.4278 275.3780 7236287 178.5774 186.2906  2.40161271    57"}}, "geometry": {"type": "Point", "coordinates": [-38.03660921315528, 10.7513622352527]}}, {"type": "Feature", "properties": {"norad_id": 66554, "name": "GLOBAL-33", "group": "last-30-days", "lat": -11.353786177330388, "lon": -53.804348107084756, "alt_km": 476.3057422492184, "timestamp": "2025-12-02T23:34:14.291614+00:00", "meta": {"OBJECT_NAME": "GLOBAL-33", "OBJECT_ID": "2025-267A", "EPOCH": "2025-12-01T20:06:06.812640", "MEAN_MOTION": 15.31226532, "ECCENTRICITY": 0.00056758, "INCLINATION": 42.0184, "RA_OF_ASC_NODE": 119.9156, "ARG_OF_PERICENTER": 335.5571, "MEAN_ANOMALY": 24.4997, "EPHEMERIS_TYPE": 0, "CLASSIFICATION_TYPE": "U", "NORAD_CAT_ID": 66554, "ELEMENT_SET_NO": 999, "REV_AT_EPOCH": 173, "BSTAR": 0.00042244628, "MEAN_MOTION_DOT": 0.00012793, "MEAN_MOTION_DDOT": 0}, "tle": {"line1": "1 66554U 25267A   25335.83757885  .00012793  00000+0  42245-3 0  9998", "line2": "2 66554  42.0184 119.9156 0005675 335.5571  24.4997 15.31226532  1737"}}, "geometry": {"type": "Point", "coordinates": [-53.804348107084756, -11.353786177330388]}}, {"type": "Feature", "properties": {"norad_id": 66555, "name": "ELECTRON KICK STAGE R/B", "group": "last-30-days", "lat": -29.526915845563245, "lon": -27.77748850254913, "alt_km": 474.3417369246772, "timestamp": "2025-12-02T23:34:14.291627+00:00", "meta": {"OBJECT_NAME": "ELECTRON KICK STAGE R/B", "OBJECT_ID": "2025-267B", "EPOCH": "2025-12-02T02:14:34.409184", "MEAN_MOTION": 15.32043166, "ECCENTRICITY": 0.00074806, "INCLINATION": 42.0172, "RA_OF_ASC_NODE": 118.3743, "ARG_OF_PERICENTER": 336.8276, "MEAN_ANOMALY": 23.2223, "EPHEMERIS_TYPE": 0, "CLASSIFICATION_TYPE": "U", "NORAD_CAT_ID": 66555, "ELEMENT_SET_NO": 999, "REV_AT_EPOCH": 177, "BSTAR": 0.00085113496, "MEAN_MOTION_DOT": 0.00026769, "MEAN_MOTION_DDOT": 0}, "tle": {"line1": "1 66555U 25267B   25336.09345381  .00026769  00000+0  85113-3 0  9991", "line2": "2 66555  42.0172 118.3743 0007480 336.8276  23.2223 15.32043166  1776"}}, "geometry": {"type": "Point", "coordinates": [-27.77748850254913, -29.526915845563245]}}, {"type": "Feature", "properties": {"norad_id": 66557, "name": "STARLINK-35699", "group": "last-30-days", "lat": -10.95830004539487, "lon": 167.0070851662551, "alt_km": 342.6866810245192, "timestamp": "2025-12-02T23:34:14.291639+00:00", "meta": {"OBJECT_NAME": "STARLINK-35699", "OBJECT_ID": "2025-268A", "EPOCH": "2025-12-02T12:00:05.998752", "MEAN_MOTION": 15.77523231, "ECCENTRICITY": 0.000162, "INCLINATION": 42.9972, "RA_OF_ASC_NODE": 181.9337, "ARG_OF_PERICENTER": 268.8321, "MEAN_ANOMALY": 215.5153, "EPHEMERIS_TYPE": 0, "CLASSIFICATION_TYPE": "U", "NORAD_CAT_ID": 66557, "ELEMENT_SET_NO": 999, "REV_AT_EPOCH": 302, "BSTAR": -0.0098568, "MEAN_MOTION_DOT": -0.01489267, "MEAN_MOTION_DDOT": 0}, "tle": {"line1": "1 66557U 25268A   25336.50006943 -.01489267  00000+0 -98568-2 0  9994", "line2": "2 66557  42.9972 181.9337 0001620 268.8321 215.5153 15.77523231  3028"}}, "geometry": {"type": "Point", "coordinates": [167.0070851662551, -10.95830004539487]}}, {"type": "Feature", "properties": {"norad_id": 66558, "name": "STARLINK-35695", "group": "last-30-days", "lat": -9.663178541621091, "lon": 168.46684577308025, "alt_km": 342.6523948850954, "timestamp": "2025-12-02T23:34:14.291650+00:00", "meta": {"OBJECT_NAME": "STARLINK-35695", "OBJECT_ID": "2025-268B", "EPOCH": "2025-12-02T12:00:05.998752", "MEAN_MOTION": 15.77513495, "ECCENTRICITY": 0.0001655, "INCLINATION": 42.9974, "RA_OF_ASC_NODE": 181.929, "ARG_OF_PERICENTER": 268.4896, "MEAN_ANOMALY": 217.8227, "EPHEMERIS_TYPE": 0, "CLASSIFICATION_TYPE": "U", "NORAD_CAT_ID": 66558, "ELEMENT_SET_NO": 999, "REV_AT_EPOCH": 302, "BSTAR": -0.0099397, "MEAN_MOTION_DOT": -0.01499716, "MEAN_MOTION_DDOT": 0}, "tle": {"line1": "1 66558U 25268B   25336.50006943 -.01499716  00000+0 -99397-2 0  9996", "line2": "2 66558  42.9974 181.9290 0001655 268.4896 217.8227 15.77513495  3028"}}, "geometry": {"type": "Point", "coordinates": [168.46684577308025, -9.663178541621091]}}, {"type": "Feature", "properties": {"norad_id": 66559, "name": "STARLINK-35419", "group": "last-30-days", "lat": -8.34458083564045, "lon": 169.9337503178246, "alt_km": 342.6460802593183, "timestamp": "2025-12-02T23:34:14.291660+00:00", "meta": {"OBJECT_NAME": "STARLINK-35419", "OBJECT_ID": "2025-268C", "EPOCH": "2025-12-02T12:00:05.998752", "MEAN_MOTION": 15.77474507, "ECCENTRICITY": 0.0001638, "INCLINATION": 42.9975, "RA_OF_ASC_NODE": 181.9234, "ARG_OF_PERICENTER": 269.927, "MEAN_ANOMALY": 218.4229, "EPHEMERIS_TYPE": 0, "CLASSIFICATION_TYPE": "U", "NORAD_CAT_ID": 66559, "ELEMENT_SET_NO": 999, "REV_AT_EPOCH": 302, "BSTAR": -0.010002, "MEAN_MOTION_DOT": -0.01505562, "MEAN_MOTION_DDOT": 0}, "tle": {"line1": "1 66559U 25268C   25336.50006943 -.01505562  00000+0 -10002-1 0  9999", "line2": "2 66559  42.9975 181.9234 0001638 269.9270 218.4229 15.77474507  3020"}}, "geometry": {"type": "Point", "coordinates": [169.9337503178246, -8.34458083564045]}}, {"type": "Feature", "properties": {"norad_id": 66560, "name": "STARLINK-35411", "group": "last-30-days", "lat": -7.033977180613386, "lon": 171.37645711369953, "alt_km": 342.6544065207854, "timestamp": "2025-12-02T23:34:14.291669+00:00", "meta": {"OBJECT_NAME": "STARLINK-35411", "OBJECT_ID": "2025-268D", "EPOCH": "2025-12-02T12:00:05.998752", "MEAN_MOTION": 15.77450741, "ECCENTRICITY": 0.000151, "INCLINATION": 42.9974, "RA_OF_ASC_NODE": 181.9184, "ARG_OF_PERICENTER": 269.112, "MEAN_ANOMALY": 221.2252, "EPHEMERIS_TYPE": 0, "CLASSIFICATION_TYPE": "U", "NORAD_CAT_ID": 66560, "ELEMENT_SET_NO": 999, "REV_AT_EPOCH": 302, "BSTAR": -0.010022, "MEAN_MOTION_DOT": -0.01506752, "MEAN_MOTION_DDOT": 0}, "tle": {"line1": "1 66560U 25268D   25336.50006943 -.01506752  00000+0 -10022-1 0  9995", "line2": "2 66560  42.9974 181.9184 0001510 269.1120 221.2252 15.77450741  3022"}}, "geometry": {"type": "Point", "coordinates": [171.37645711369953, -7.033977180613386]}}]}